[{"OBJECT_NAME":"STARLINK-30947","OBJECT_ID":"2023-186A","EPOCH":"2026-03-09T22:00:01.999584","MEAN_MOTION":15.24671961,"ECCENTRICITY":0.00016408,"INCLINATION":43.002,"RA_OF_ASC_NODE":65.6766,"ARG_OF_PERICENTER":257.5953,"MEAN_ANOMALY":45.9401,"EPHEMERIS_TYPE":0,"CLASSIFICATION_TYPE":"U","NORAD_CAT_ID":58473,"ELEMENT_SET_NO":999,"REV_AT_EPOCH":577,"BSTAR":0.047928589,"MEAN_MOTION_DOT":0.01328512,"MEAN_MOTION_DDOT":0},{"OBJECT_NAME":"HORS 3 (RS81S)","OBJECT_ID":"2024-199U","EPOCH":"2026-03-09T21:43:04.703520","MEAN_MOTION":15.48395916,"ECCENTRICITY":0.00055575,"INCLINATION":97.3126,"RA_OF_ASC_NODE":303.1753,"ARG_OF_PERICENTER":289.6853,"MEAN_ANOMALY":70.3798,"EPHEMERIS_TYPE":0,"CLASSIFICATION_TYPE":"U","NORAD_CAT_ID":61753,"ELEMENT_SET_NO":999,"REV_AT_EPOCH":12216,"BSTAR":0.00067107368,"MEAN_MOTION_DOT":0.00035592,"MEAN_MOTION_DDOT":0}]
